OBJECT B                
1 51825U 22019B   24339.89533646  .00028117  00000+0  96102-3 0  9999
2 51825  97.4104  49.8478 0012104   2.5848 357.5453 15.30176853153250
